{
  "norad_id": 65617,
  "name": "HJS-7A",
  "history": [
    {
      "epoch": "2026-03-28T20:12:41.560416Z",
      "apogee_km": 1104.3708607829221,
      "perigee_km": 1103.359144472126,
      "latitude_deg": 1.5716130607895792e-05,
      "longitude_deg": 164.2319501765184,
      "height_km": 1104.3788255103502,
      "semi_major_axis_km": 7482.002002627523,
      "eccentricity": 6.761e-05,
      "inclination_deg": 49.9989,
      "raan_deg": 293.6619,
      "arg_perigee_deg": 90.651,
      "mean_anomaly_deg": 269.4445,
      "mean_motion_rev_day": 13.41454763
    },
    {
      "epoch": "2026-03-29T01:34:31.739232Z",
      "apogee_km": 1104.373607707872,
      "perigee_km": 1103.3560554587766,
      "latitude_deg": -1.72411758288039e-05,
      "longitude_deg": 82.73365510534884,
      "height_km": 1104.385896426697,
      "semi_major_axis_km": 7482.001831583324,
      "eccentricity": 6.8e-05,
      "inclination_deg": 49.9989,
      "raan_deg": 292.843,
      "arg_perigee_deg": 91.463,
      "mean_anomaly_deg": 268.6325,
      "mean_motion_rev_day": 13.41454809
    }
  ]
}